NORAD_CAT_ID,OBJECT_NAME,OBJECT_TYPE,EPOCH,MEAN_MOTION,ECCENTRICITY,INCLINATION,RA_OF_ASC_NODE,ARG_OF_PERICENTER,MEAN_ANOMALY,BSTAR,MEAN_MOTION_DOT,MEAN_MOTION_DDOT,TLE_LINE0,TLE_LINE1,TLE_LINE2,SEMIMAJOR_AXIS,PERIOD,APOGEE,PERIGEE,DECAYED
53601.0,STARLINK-4675,PAYLOAD,2023-05-04 13:35:54,15.08836963,4.86e-05,53.2156,233.2675,74.4201,285.6845,-3.2079e-05,-7.98e-06,0.0,0 STARLINK-4675,1 53601U 22104P   23124.56660700 -.00000798  00000-0 -32079-4 0  9997,2 53601  53.2156 233.2675 0000486  74.4201 285.6845 15.08836963 38595,6917.89,95.438,540.091,539.418,0.0
53601.0,STARLINK-4675,PAYLOAD,2023-05-04 16:46:41,15.08835626,5.33e-05,53.2155,232.6722,81.7685,278.3368,0.00013801,1.909e-05,0.0,0 STARLINK-4675,1 53601U 22104P   23124.69908884  .00001909  00000-0  13801-3 0  9993,2 53601  53.2155 232.6722 0000533  81.7685 278.3368 15.08835626 37920,6917.894,95.438,540.127,539.39,0.0
53601.0,STARLINK-4675,PAYLOAD,2023-05-05 13:26:41,15.08850636,5.22e-05,53.2156,228.8073,64.7465,295.3581,0.00034016,5.132e-05,0.0,0 STARLINK-4675,1 53601U 22104P   23125.56020326  .00005132  00000-0  34016-3 0  9999,2 53601  53.2156 228.8073 0000522  64.7465 295.3581 15.08850636 38051,6917.848,95.437,540.074,539.352,0.0
53601.0,STARLINK-4675,PAYLOAD,2023-05-06 13:17:28,15.0885205,4.5e-05,53.2154,224.3445,59.7555,300.3482,0.00028773,4.296e-05,0.0,0 STARLINK-4675,1 53601U 22104P   23126.55380244  .00004296  00000-0  28773-3 0  9990,2 53601  53.2154 224.3445 0000450  59.7555 300.3482 15.08852050 38898,6917.844,95.437,540.02,539.397,0.0
53601.0,STARLINK-4675,PAYLOAD,2023-05-06 16:28:14,15.08853725,4.15e-05,53.2154,223.7502,79.3693,280.7346,0.00029464,4.406e-05,0.0,0 STARLINK-4675,1 53601U 22104P   23126.68628075  .00004406  00000-0  29464-3 0  9992,2 53601  53.2154 223.7502 0000415  79.3693 280.7346 15.08853725 38224,6917.838,95.437,539.991,539.416,0.0
53601.0,STARLINK-4675,PAYLOAD,2023-05-07 13:08:15,15.0884686,4.43e-05,53.2158,219.8859,71.6253,288.4787,3.5771e-05,2.82e-06,0.0,0 STARLINK-4675,1 53601U 22104P   23127.54740151  .00000282  00000-0  35771-4 0  9995,2 53601  53.2158 219.8859 0000443  71.6253 288.4787 15.08846860 38357,6917.859,95.437,540.031,539.418,0.0
53601.0,STARLINK-4675,PAYLOAD,2023-05-08 12:59:02,15.0883623,6.16e-05,53.2157,215.4302,101.1712,258.9349,4.8927e-06,-2.1e-06,0.0,0 STARLINK-4675,1 53601U 22104P   23128.54100680 -.00000210  00000-0  48927-5 0  9993,2 53601  53.2157 215.4302 0000616 101.1712 258.9349 15.08836230 38505,6917.892,95.438,540.183,539.331,0.0
53601.0,STARLINK-4675,PAYLOAD,2023-05-09 12:49:49,15.0884637,5.45e-05,53.2159,210.9697,80.3991,279.7062,0.00013109,1.8e-05,0.0,0 STARLINK-4675,1 53601U 22104P   23129.53460396  .00001800  00000-0  13109-3 0  9993,2 53601  53.2159 210.9697 0000545  80.3991 279.7062 15.08846370 39344,6917.861,95.437,540.103,539.349,0.0
53601.0,STARLINK-4675,PAYLOAD,2023-05-10 12:40:37,15.08838347,6.89e-05,53.2162,206.5084,95.8426,264.2645,5.422e-05,5.75e-06,0.0,0 STARLINK-4675,1 53601U 22104P   23130.52821071  .00000575  00000-0  54220-4 0  9993,2 53601  53.2162 206.5084 0000689  95.8426 264.2645 15.08838347 39499,6917.885,95.438,540.227,539.274,0.0
53601.0,STARLINK-4675,PAYLOAD,2023-05-11 10:56:00,15.08848153,7.17e-05,53.2162,202.3434,85.4195,274.6879,5.9836e-05,6.65e-06,0.0,0 STARLINK-4675,1 53601U 22104P   23131.45556650  .00000665  00000-0  59836-4 0  9992,2 53601  53.2162 202.3434 0000717  85.4195 274.6879 15.08848153 38941,6917.855,95.437,540.216,539.224,0.0
53601.0,STARLINK-4675,PAYLOAD,2023-05-11 12:31:24,15.08849479,6.68e-05,53.216,202.0461,81.0946,279.0122,0.00012666,1.729e-05,0.0,0 STARLINK-4675,1 53601U 22104P   23131.52180563  .00001729  00000-0  12666-3 0  9997,2 53601  53.2160 202.0461 0000668  81.0946 279.0122 15.08849479 39647,6917.851,95.437,540.179,539.254,0.0
53601.0,STARLINK-4675,PAYLOAD,2023-05-11 22:03:43,15.08843988,6.89e-05,53.2156,200.2629,71.144,288.9627,0.00010076,1.316e-05,0.0,0 STARLINK-4675,1 53601U 22104P   23131.91924827  .00001316  00000-0  10076-3 0  9994,2 53601  53.2156 200.2629 0000689  71.1440 288.9627 15.08843988 39705,6917.868,95.437,540.21,539.257,0.0
53601.0,STARLINK-4675,PAYLOAD,2023-05-12 09:11:25,15.08830804,6.95e-05,53.2162,198.1828,75.0609,285.0461,0.00013521,1.864e-05,0.0,0 STARLINK-4675,1 53601U 22104P   23132.38293732  .00001864  00000-0  13521-3 0  9996,2 53601  53.2162 198.1828 0000695  75.0609 285.0461 15.08830804 39083,6917.908,95.438,540.254,539.293,0.0
53601.0,STARLINK-4675,PAYLOAD,2023-05-12 23:29:53,15.08843137,5.66e-05,53.2169,195.5013,130.5972,229.5069,9.0382e-05,1.151e-05,0.0,0 STARLINK-4675,1 53601U 22104P   23132.97908844  .00001151  00000-0  90382-4 0  9998,2 53601  53.2169 195.5013 0000566 130.5972 229.5069 15.08843137 39174,6917.871,95.437,540.127,539.344,0.0
53601.0,STARLINK-4675,PAYLOAD,2023-05-13 10:37:34,15.0884961,6.83e-05,53.2164,193.4215,114.3949,245.7114,4.2571e-05,3.9e-06,0.0,0 STARLINK-4675,1 53601U 22104P   23133.44276552  .00000390  00000-0  42571-4 0  9996,2 53601  53.2164 193.4215 0000683 114.3949 245.7114 15.08849610 39931,6917.851,95.437,540.189,539.244,0.0
53601.0,STARLINK-4675,PAYLOAD,2023-05-14 12:03:46,15.08835851,7.59e-05,53.216,188.6651,79.9035,280.2043,4.0923e-05,3.64e-06,0.0,0 STARLINK-4675,1 53601U 22104P   23134.50261591  .00000364  00000-0  40923-4 0  9991,2 53601  53.2160 188.6651 0000759  79.9035 280.2043 15.08835851 39402,6917.893,95.438,540.283,539.233,0.0
53601.0,STARLINK-4675,PAYLOAD,2023-05-14 20:00:41,15.08834732,7.52e-05,53.2159,187.1778,83.5273,276.5805,2.5047e-05,1.11e-06,0.0,0 STARLINK-4675,1 53601U 22104P   23134.83381738  .00000111  00000-0  25047-4 0  9993,2 53601  53.2159 187.1778 0000752  83.5273 276.5805 15.08834732 40146,6917.896,95.438,540.282,539.241,0.0
53601.0,STARLINK-4675,PAYLOAD,2023-05-15 10:19:09,15.08840494,7.59e-05,53.2159,184.5019,85.7103,274.3976,5.2575e-05,5.49e-06,0.0,0 STARLINK-4675,1 53601U 22104P   23135.42997350  .00000549  00000-0  52575-4 0  9993,2 53601  53.2159 184.5019 0000759  85.7103 274.3976 15.08840494 40235,6917.879,95.438,540.269,539.219,0.0
53601.0,STARLINK-4675,PAYLOAD,2023-05-15 19:51:28,15.08835535,7.39e-05,53.2157,182.718,82.2702,277.8374,4.2241e-05,3.85e-06,0.0,0 STARLINK-4675,1 53601U 22104P   23135.82741752  .00000385  00000-0  42241-4 0  9997,2 53601  53.2157 182.7180 0000739  82.2702 277.8374 15.08835535 39606,6917.894,95.438,540.27,539.248,0.0
53601.0,STARLINK-4675,PAYLOAD,2023-05-16 08:34:34,15.08833926,7.44e-05,53.216,180.339,82.224,277.8837,5.1209e-05,5.27e-06,0.0,0 STARLINK-4675,1 53601U 22104P   23136.35734041  .00000527  00000-0  51209-4 0  9991,2 53601  53.2160 180.3390 0000744  82.2240 277.8837 15.08833926 40372,6917.899,95.438,540.279,539.249,0.0
53601.0,STARLINK-4675,PAYLOAD,2023-05-16 19:42:16,15.08835765,7.39e-05,53.2161,178.2575,82.5697,277.5379,6.9971e-05,8.26e-06,0.0,0 STARLINK-4675,1 53601U 22104P   23136.82101965  .00000826  00000-0  69971-4 0  9993,2 53601  53.2161 178.2575 0000739  82.5697 277.5379 15.08835765 40446,6917.893,95.438,540.27,539.247,0.0
53601.0,STARLINK-4675,PAYLOAD,2023-05-16 22:53:02,15.08836785,7.32e-05,53.2161,177.6627,81.9833,278.1242,8.076e-05,9.98e-06,0.0,0 STARLINK-4675,1 53601U 22104P   23136.95349904  .00000998  00000-0  80760-4 0  9993,2 53601  53.2161 177.6627 0000732  81.9833 278.1242 15.08836785 39778,6917.89,95.438,540.262,539.249,0.0
53601.0,STARLINK-4675,PAYLOAD,2023-05-17 11:36:07,15.08842761,7.6e-05,53.2158,175.2835,78.3221,281.7856,6.5162e-05,7.5e-06,0.0,0 STARLINK-4675,1 53601U 22104P   23137.48341589  .00000750  00000-0  65162-4 0  9998,2 53601  53.2158 175.2835 0000760  78.3221 281.7856 15.08842761 40540,6917.872,95.437,540.263,539.211,0.0
53601.0,STARLINK-4675,PAYLOAD,2023-05-18 01:54:35,15.0883718,7.53e-05,53.2161,172.607,84.4124,275.6954,5.9279e-05,6.56e-06,0.0,0 STARLINK-4675,1 53601U 22104P   23138.07957972  .00000656  00000-0  59279-4 0  9990,2 53601  53.2161 172.6070 0000753  84.4124 275.6954 15.08837180 39940,6917.889,95.438,540.275,539.233,0.0
53601.0,STARLINK-4675,PAYLOAD,2023-05-18 11:26:54,15.08837948,7.8e-05,53.2159,170.822,76.4315,283.6764,4.4967e-05,4.28e-06,0.0,0 STARLINK-4675,1 53601U 22104P   23138.47702036  .00000428  00000-0  44967-4 0  9998,2 53601  53.2159 170.8220 0000780  76.4315 283.6764 15.08837948 40691,6917.887,95.438,540.291,539.212,0.0
53601.0,STARLINK-4675,PAYLOAD,2023-05-18 19:23:50,15.08837907,7.73e-05,53.216,169.3353,79.9964,280.1116,3.3179e-05,2.4e-06,0.0,0 STARLINK-4675,1 53601U 22104P   23138.80822104  .00000240  00000-0  33179-4 0  9999,2 53601  53.2160 169.3353 0000773  79.9964 280.1116 15.08837907 40747,6917.887,95.438,540.287,539.217,0.0
53601.0,STARLINK-4675,PAYLOAD,2023-05-19 08:06:55,15.08840216,7.57e-05,53.2158,166.9559,82.6205,277.4873,2.7304e-05,1.47e-06,0.0,0 STARLINK-4675,1 53601U 22104P   23139.33813981  .00000147  00000-0  27304-4 0  9990,2 53601  53.2158 166.9559 0000757  82.6205 277.4873 15.08840216 40135,6917.88,95.438,540.268,539.221,0.0
53601.0,STARLINK-4675,PAYLOAD,2023-05-19 19:14:37,15.08840346,7.1e-05,53.2154,164.8741,83.7087,276.3986,4.3658e-05,4.07e-06,0.0,0 STARLINK-4675,1 53601U 22104P   23139.80181877  .00000407  00000-0  43658-4 0  9993,2 53601  53.2154 164.8741 0000710  83.7087 276.3986 15.08840346 40890,6917.879,95.438,540.236,539.253,0.0
53601.0,STARLINK-4675,PAYLOAD,2023-05-20 11:08:28,15.08843886,8.19e-05,53.2159,161.9007,79.5268,280.5816,8.6418e-05,1.088e-05,0.0,0 STARLINK-4675,1 53601U 22104P   23140.46421601  .00001088  00000-0  86418-4 0  9996,2 53601  53.2159 161.9007 0000819  79.5268 280.5816 15.08843886 40309,6917.869,95.437,540.3,539.167,0.0
53601.0,STARLINK-4675,PAYLOAD,2023-05-21 10:59:14,15.08846694,8.27e-05,53.2159,157.44,78.8153,281.2932,8.7101e-05,1.099e-05,0.0,0 STARLINK-4675,1 53601U 22104P   23141.45781178  .00001099  00000-0  87101-4 0  9996,2 53601  53.2159 157.4400 0000827  78.8153 281.2932 15.08846694 41140,6917.86,95.437,540.297,539.153,0.0
